NORAD_CAT_ID,OBJECT_NAME,OBJECT_TYPE,EPOCH,MEAN_MOTION,ECCENTRICITY,INCLINATION,RA_OF_ASC_NODE,ARG_OF_PERICENTER,MEAN_ANOMALY,BSTAR,MEAN_MOTION_DOT,MEAN_MOTION_DDOT,TLE_LINE0,TLE_LINE1,TLE_LINE2,SEMIMAJOR_AXIS,PERIOD,APOGEE,PERIGEE,DECAYED
53420.0,STARLINK-4552,PAYLOAD,2024-08-05 16:20:52,15.08837391,0.0001443,53.2153,202.3704,95.0817,265.034,5.9464e-05,6.58e-06,0.0,0 STARLINK-4552,1 53420U 22097AJ  24218.68115759  .00000658  00000-0  59464-4 0  9994,2 53420  53.2153 202.3704 0001443  95.0817 265.0340 15.08837391110451,6917.888,95.438,540.752,538.755,0.0
53420.0,STARLINK-4552,PAYLOAD,2024-08-06 05:03:57,15.08827921,0.0001453,53.2158,199.9894,99.7469,260.3688,-2.4912e-06,-3.28e-06,0.0,0 STARLINK-4552,1 53420U 22097AJ  24219.21108792 -.00000328  00000-0 -24912-5 0  9990,2 53420  53.2158 199.9894 0001453  99.7469 260.3688 15.08827921110532,6917.917,95.438,540.787,538.777,0.0
53420.0,STARLINK-4552,PAYLOAD,2024-08-06 08:14:44,15.08833609,0.0001466,53.2159,199.3938,101.1107,259.005,-1.3923e-05,-5.09e-06,0.0,0 STARLINK-4552,1 53420U 22097AJ  24219.34356506 -.00000509  00000-0 -13923-4 0  9992,2 53420  53.2159 199.3938 0001466 101.1107 259.0050 15.08833609111019,6917.9,95.438,540.779,538.751,0.0
53420.0,STARLINK-4552,PAYLOAD,2024-08-07 08:05:29,15.08858488,0.000159,53.216,194.9322,113.4915,246.6245,0.00011992,1.622e-05,0.0,0 STARLINK-4552,1 53420U 22097AJ  24220.33714367  .00001622  00000-0  11992-3 0  9994,2 53420  53.2160 194.9322 0001590 113.4915 246.6245 15.08858488110705,6917.824,95.436,540.789,538.589,0.0
53420.0,STARLINK-4552,PAYLOAD,2024-08-08 04:45:30,15.08845058,0.0001462,53.2162,191.0708,100.1056,260.0101,0.00014385,2.002e-05,0.0,0 STARLINK-4552,1 53420U 22097AJ  24221.19827458  .00002002  00000-0  14385-3 0  9997,2 53420  53.2162 191.0708 0001462 100.1056 260.0101 15.08845058111295,6917.865,95.437,540.741,538.719,0.0
53420.0,STARLINK-4552,PAYLOAD,2024-08-09 04:36:18,15.08848179,0.0001336,53.216,186.6113,90.3567,269.7578,-9.3311e-05,-1.773e-05,0.0,0 STARLINK-4552,1 53420U 22097AJ  24222.19187894 -.00001773  00000-0 -93311-4 0  9994,2 53420  53.2160 186.6113 0001336  90.3567 269.7578 15.08848179110986,6917.855,95.437,540.645,538.796,0.0
53420.0,STARLINK-4552,PAYLOAD,2024-08-09 07:47:04,15.08847986,0.000131,53.2156,186.0134,89.8319,270.2823,-4.8937e-05,-1.067e-05,0.0,0 STARLINK-4552,1 53420U 22097AJ  24222.32435746 -.00001067  00000-0 -48937-4 0  9991,2 53420  53.2156 186.0134 0001310  89.8319 270.2823 15.08847986111467,6917.856,95.437,540.627,538.815,0.0
53420.0,STARLINK-4552,PAYLOAD,2024-08-09 22:05:33,15.08821094,0.0001522,53.2154,183.3368,107.1557,252.9602,0.00032352,4.862e-05,0.0,0 STARLINK-4552,1 53420U 22097AJ  24222.92052586  .00004862  00000-0  32352-3 0  9991,2 53420  53.2154 183.3368 0001522 107.1557 252.9602 15.08821094111551,6917.938,95.439,540.856,538.75,0.0
53420.0,STARLINK-4552,PAYLOAD,2024-08-10 07:37:51,15.08851109,0.0001606,53.2165,181.5483,111.6844,248.432,0.00018004,2.579e-05,0.0,0 STARLINK-4552,1 53420U 22097AJ  24223.31795429  .00002579  00000-0  18004-3 0  9996,2 53420  53.2165 181.5483 0001606 111.6844 248.4320 15.08851109111156,6917.846,95.437,540.822,538.6,0.0
53420.0,STARLINK-4552,PAYLOAD,2024-08-11 02:42:29,15.08845717,0.0001573,53.2155,177.983,96.255,263.8621,0.00012944,1.773e-05,0.0,0 STARLINK-4552,1 53420U 22097AJ  24224.11283610  .00001773  00000-0  12944-3 0  9991,2 53420  53.2155 177.9830 0001573  96.2550 263.8621 15.08845717111271,6917.863,95.437,540.816,538.64,0.0
53420.0,STARLINK-4552,PAYLOAD,2024-08-11 13:50:11,15.08837965,0.0001602,53.2153,175.9108,105.6011,254.5158,0.00020003,2.897e-05,0.0,0 STARLINK-4552,1 53420U 22097AJ  24224.57652146  .00002897  00000-0  20003-3 0  9998,2 53420  53.2153 175.9108 0001602 105.6011 254.5158 15.08837965111341,6917.887,95.438,540.86,538.643,0.0
53420.0,STARLINK-4552,PAYLOAD,2024-08-12 13:40:57,15.08851665,0.0001589,53.2165,171.4403,92.9188,267.1986,0.00029225,4.368e-05,0.0,0 STARLINK-4552,1 53420U 22097AJ  24225.57011544  .00004368  00000-0  29225-3 0  9990,2 53420  53.2165 171.4403 0001589  92.9188 267.1986 15.08851665111959,6917.845,95.437,540.809,538.61,0.0
53420.0,STARLINK-4552,PAYLOAD,2024-08-12 20:02:30,15.08853399,0.0001673,53.2169,170.2553,89.8004,270.3179,0.00037103,5.624e-05,0.0,0 STARLINK-4552,1 53420U 22097AJ  24225.83507587  .00005624  00000-0  37103-3 0  9996,2 53420  53.2169 170.2553 0001673  89.8004 270.3179 15.08853399111532,6917.839,95.437,540.862,538.547,0.0
53420.0,STARLINK-4552,PAYLOAD,2024-08-13 13:31:46,15.08816305,0.0002339,53.2142,166.9863,76.5314,283.5939,-0.00032377,-5.434e-05,0.0,0 STARLINK-4552,1 53420U 22097AJ  24226.56373128 -.00005434  00000-0 -32377-3 0  9998,2 53420  53.2142 166.9863 0002339  76.5314 283.5939 15.08816305111644,6917.953,95.439,541.436,538.2,0.0
53420.0,STARLINK-4552,PAYLOAD,2024-08-13 19:53:19,15.08810287,0.0003271,53.2145,165.7962,77.9343,282.2015,-0.00031109,-5.233e-05,0.0,0 STARLINK-4552,1 53420U 22097AJ  24226.82870167 -.00005233  00000-0 -31109-3 0  9991,2 53420  53.2145 165.7962 0003271  77.9343 282.2015 15.08810287112147,6917.971,95.439,542.099,537.573,0.0
53420.0,STARLINK-4552,PAYLOAD,2024-08-14 13:22:34,15.08824167,0.0001897,53.2185,162.5205,90.1304,269.9905,3.2463e-05,2.28e-06,0.0,0 STARLINK-4552,1 53420U 22097AJ  24227.55734390  .00000228  00000-0  32463-4 0  9991,2 53420  53.2185 162.5205 0001897  90.1304 269.9905 15.08824167111794,6917.929,95.439,541.106,538.481,0.0
53420.0,STARLINK-4552,PAYLOAD,2024-08-14 22:54:53,15.08829599,0.00016,53.2156,160.7414,61.2384,298.8768,0.0004447,6.794e-05,0.0,0 STARLINK-4552,1 53420U 22097AJ  24227.95478752  .00006794  00000-0  44470-3 0  9996,2 53420  53.2156 160.7414 0001600  61.2384 298.8768 15.08829599112314,6917.912,95.438,540.884,538.67,0.0
53420.0,STARLINK-4552,PAYLOAD,2024-08-15 02:05:39,15.08840328,0.0001538,53.2158,160.1441,76.0818,284.0345,0.00074013,0.00011511,0.0,0 STARLINK-4552,1 53420U 22097AJ  24228.08726602  .00011511  00000-0  74013-3 0  9990,2 53420  53.2158 160.1441 0001538  76.0818 284.0345 15.08840328111877,6917.879,95.438,540.808,538.68,0.0
53420.0,STARLINK-4552,PAYLOAD,2024-08-15 22:45:39,15.0886261,0.0001795,53.2147,156.2799,67.9787,292.1395,0.00060224,9.316e-05,0.0,0 STARLINK-4552,1 53420U 22097AJ  24228.94837878  .00009316  00000-0  60224-3 0  9992,2 53420  53.2147 156.2799 0001795  67.9787 292.1395 15.08862610112465,6917.811,95.436,540.918,538.435,0.0
53420.0,STARLINK-4552,PAYLOAD,2024-08-16 01:56:25,15.08868686,0.0001676,53.2151,155.6828,83.9513,276.167,0.00062758,9.722e-05,0.0,0 STARLINK-4552,1 53420U 22097AJ  24229.08085436  .00009722  00000-0  62758-3 0  9998,2 53420  53.2151 155.6828 0001676  83.9513 276.1670 15.08868686112488,6917.793,95.436,540.817,538.498,0.0
53420.0,STARLINK-4552,PAYLOAD,2024-08-16 19:25:40,15.08857721,0.0001543,53.2132,152.4181,75.9587,284.1577,0.00025631,3.795e-05,0.0,0 STARLINK-4552,1 53420U 22097AJ  24229.80949215  .00003795  00000-0  25631-3 0  9995,2 53420  53.2132 152.4181 0001543  75.9587 284.1577 15.08857721112134,6917.826,95.436,540.759,538.624,0.0
53420.0,STARLINK-4552,PAYLOAD,2024-08-17 01:47:12,15.08848067,0.0001332,53.2156,151.2228,95.9153,264.1991,-6.2987e-06,-3.88e-06,0.0,0 STARLINK-4552,1 53420U 22097AJ  24230.07445203 -.00000388  00000-0 -62987-5 0  9998,2 53420  53.2156 151.2228 0001332  95.9153 264.1991 15.08848067112171,6917.856,95.437,540.642,538.799,0.0
53420.0,STARLINK-4552,PAYLOAD,2024-08-17 17:41:04,15.08841865,0.0001229,53.2154,148.2509,89.4313,270.682,-6.7413e-05,-1.361e-05,0.0,0 STARLINK-4552,1 53420U 22097AJ  24230.73685313 -.00001361  00000-0 -67413-4 0  9999,2 53420  53.2154 148.2509 0001229  89.4313 270.6820 15.08841865112271,6917.875,95.437,540.59,538.889,0.0
53420.0,STARLINK-4552,PAYLOAD,2024-08-18 04:48:45,15.08855156,0.0001302,53.2153,146.1672,94.6921,265.422,9.8367e-05,1.279e-05,0.0,0 STARLINK-4552,1 53420U 22097AJ  24231.20052624  .00001279  00000-0  98367-4 0  9993,2 53420  53.2153 146.1672 0001302  94.6921 265.4220 15.08855156112345,6917.834,95.437,540.6,538.798,0.0
53420.0,STARLINK-4552,PAYLOAD,2024-08-18 22:18:00,15.08847777,0.0001441,53.2162,142.8954,112.9952,247.1192,0.00019624,2.837e-05,0.0,0 STARLINK-4552,1 53420U 22097AJ  24231.92916719  .00002837  00000-0  19624-3 0  9995,2 53420  53.2162 142.8954 0001441 112.9952 247.1192 15.08847777112911,6917.857,95.437,540.718,538.725,0.0
53420.0,STARLINK-4552,PAYLOAD,2024-08-19 03:04:09,15.08854092,0.0001303,53.2167,142.0025,92.3541,267.7601,0.00027185,4.043e-05,0.0,0 STARLINK-4552,1 53420U 22097AJ  24232.12788491  .00004043  00000-0  27185-3 0  9994,2 53420  53.2167 142.0025 0001303  92.3541 267.7601 15.08854092112482,6917.837,95.437,540.604,538.801,0.0
53420.0,STARLINK-4552,PAYLOAD,2024-08-19 17:22:38,15.08824167,7.47e-05,53.2163,139.3265,106.3379,253.7695,-0.00033844,-5.667e-05,0.0,0 STARLINK-4552,1 53420U 22097AJ  24232.72405640 -.00005667  00000-0 -33844-3 0  9996,2 53420  53.2163 139.3265 0000747 106.3379 253.7695 15.08824167112577,6917.929,95.439,540.311,539.277,0.0
53420.0,STARLINK-4552,PAYLOAD,2024-08-20 04:30:20,15.08837646,0.0001364,53.2163,137.2467,96.792,263.3227,2.8701e-05,1.69e-06,0.0,0 STARLINK-4552,1 53420U 22097AJ  24233.18773439  .00000169  00000-0  28701-4 0  9998,2 53420  53.2163 137.2467 0001364  96.7920 263.3227 15.08837646112640,6917.888,95.438,540.696,538.809,0.0
53420.0,STARLINK-4552,PAYLOAD,2024-08-20 23:34:58,15.08841934,0.0001392,53.216,133.6792,83.6736,276.4415,0.00018278,2.622e-05,0.0,0 STARLINK-4552,1 53420U 22097AJ  24233.98261741  .00002622  00000-0  18278-3 0  9997,2 53420  53.2160 133.6792 0001392  83.6736 276.4415 15.08841934113223,6917.874,95.437,540.702,538.777,0.0
53420.0,STARLINK-4552,PAYLOAD,2024-08-21 23:25:45,15.08842692,0.0001378,53.2154,129.2189,84.4622,275.6527,0.0002602,3.856e-05,0.0,0 STARLINK-4552,1 53420U 22097AJ  24234.97622087  .00003856  00000-0  26020-3 0  9995,2 53420  53.2154 129.2189 0001378  84.4622 275.6527 15.08842692112916,6917.872,95.437,540.69,538.784,0.0
